{
  "norad_id": 64019,
  "name": "STARLINK-34155",
  "history": [
    {
      "epoch": "2026-03-28T20:20:30.105024Z",
      "apogee_km": 484.8536957704264,
      "perigee_km": 481.14360527876215,
      "latitude_deg": 6.22166337180104e-05,
      "longitude_deg": 118.51278907088258,
      "height_km": 482.43509998111887,
      "semi_major_axis_km": 6861.135650524594,
      "eccentricity": 0.00027037,
      "inclination_deg": 43.0045,
      "raan_deg": 249.9003,
      "arg_perigee_deg": 280.6154,
      "mean_anomaly_deg": 79.4394,
      "mean_motion_rev_day": 15.27596847
    },
    {
      "epoch": "2026-03-28T21:54:39.380256Z",
      "apogee_km": 485.11717658601447,
      "perigee_km": 480.86602130610754,
      "latitude_deg": 3.640488560982789e-05,
      "longitude_deg": 94.53816819995313,
      "height_km": 482.4566072222254,
      "semi_major_axis_km": 6861.128598946061,
      "eccentricity": 0.0003098,
      "inclination_deg": 43.0031,
      "raan_deg": 249.5288,
      "arg_perigee_deg": 278.4751,
      "mean_anomaly_deg": 81.575,
      "mean_motion_rev_day": 15.27599202
    }
  ]
}